ONEWEB-0414             
1 50491U 21132Y   25277.69424058 -.00000010  00000+0 -59010-4 0  9990
2 50491  87.9222  26.1668 0001616  95.8274 264.3043 13.18686294187959
ONEWEB-0417             
1 50492U 21132Z   25277.55073514  .00000066  00000+0  13587-3 0  9990
2 50492  87.9222  26.2286 0001982  95.4262 264.7096 13.18686177187914
ONEWEB-0418             
1 50493U 21132AA  25277.56050022  .00000068  00000+0  13864-3 0  9991
2 50493  87.9223  26.2121 0002161  90.5609 269.5770 13.18686597187979
ONEWEB-0419             
1 50494U 21132AB  25277.57877936  .00000024  00000+0  28270-4 0  9994
2 50494  87.9221  26.2088 0002089 100.8127 259.3241 13.18686510187895
ONEWEB-0420             
1 50495U 21132AC  25277.69589103 -.00000023  00000+0 -92079-4 0  9993
2 50495  87.9221  26.1962 0001626 111.5948 248.5357 13.18685363187907
ONEWEB-0421             
1 50496U 21132AD  25277.76516574 -.00000004  00000+0 -42520-4 0  9999
2 50496  87.9225  26.1762 0001549  94.7039 265.4270 13.18686957187954
ONEWEB-0424             
1 50497U 21132AE  25277.57381839  .00000138  00000+0  31771-3 0  9994
2 50497  87.9224  26.2093 0002177 104.5218 255.6156 13.18687499187955
ONEWEB-0426             
1 50498U 21132AF  25277.53424514  .00000118  00000+0  26669-3 0  9997
2 50498  87.9220  26.2088 0001741  77.1233 283.0094 13.18686850187893
